{
    "links": {
        "self": "http://www.neowsapp.com/rest/v1/neo/3627103?api_key=iIulBulltgU6a56xZRHN4H3l9WmuAYTsLGpBGhQ2"
    },
    "id": "3627103",
    "neo_reference_id": "3627103",
    "name": "(2013 CZ133)",
    "designation": "2013 CZ133",
    "nasa_jpl_url": "http://ssd.jpl.nasa.gov/sbdb.cgi?sstr=3627103",
    "absolute_magnitude_h": 23.7,
    "estimated_diameter": {
        "kilometers": {
            "estimated_diameter_min": 0.0483676488,
            "estimated_diameter_max": 0.1081533507
        },
        "meters": {
            "estimated_diameter_min": 48.3676488219,
            "estimated_diameter_max": 108.1533506775
        },
        "miles": {
            "estimated_diameter_min": 0.0300542543,
            "estimated_diameter_max": 0.0672033557
        },
        "feet": {
            "estimated_diameter_min": 158.6865169607,
            "estimated_diameter_max": 354.8338390368
        }
    },
    "is_potentially_hazardous_asteroid": false,
    "close_approach_data": [
        {
            "close_approach_date": "2013-02-23",
            "close_approach_date_full": "2013-Feb-23 23:40",
            "epoch_date_close_approach": 1361662800000,
            "relative_velocity": {
                "kilometers_per_second": "2.636797705",
                "kilometers_per_hour": "9492.4717379258",
                "miles_per_hour": "5898.2527862684"
            },
            "miss_distance": {
                "astronomical": "0.1591248722",
                "lunar": "61.8995752858",
                "kilometers": "23804741.945142214",
                "miles": "14791580.7499979932"
            },
            "orbiting_body": "Earth"
        }
    ],
    "orbital_data": {
        "orbit_id": "9",
        "orbit_determination_date": "2017-04-06 08:46:45",
        "first_observation_date": "2013-02-15",
        "last_observation_date": "2013-03-16",
        "data_arc_in_days": 29,
        "observations_used": 34,
        "orbit_uncertainty": "7",
        "minimum_orbit_intersection": ".158442",
        "jupiter_tisserand_invariant": "4.261",
        "epoch_osculation": "2459000.5",
        "eccentricity": ".2955769611797946",
        "semi_major_axis": "1.628875862572564",
        "inclination": "3.999251130513291",
        "ascending_node_longitude": "342.9269770686223",
        "orbital_period": "759.3297377105499",
        "perihelion_distance": "1.147417684974249",
        "perihelion_argument": "168.7961268421865",
        "aphelion_distance": "2.110334040170879",
        "perihelion_time": "2458621.982349562385",
        "mean_anomaly": "179.4561010719759",
        "mean_motion": ".4741023327829009",
        "equinox": "J2000",
        "orbit_class": {
            "orbit_class_type": "AMO",
            "orbit_class_description": "Near-Earth asteroid orbits similar to that of 1221 Amor",
            "orbit_class_range": "1.017 AU < q (perihelion) < 1.3 AU"
        }
    },
    "is_sentry_object": false
}